OBJECT_NAME,OBJECT_ID,EPOCH,MEAN_MOTION,ECCENTRICITY,INCLINATION,RA_OF_ASC_NODE,ARG_OF_PERICENTER,MEAN_ANOMALY,EPHEMERIS_TYPE,CLASSIFICATION_TYPE,NORAD_CAT_ID,ELEMENT_SET_NO,REV_AT_EPOCH,BSTAR,MEAN_MOTION_DOT,MEAN_MOTION_DDOT
STARLINK-3136,2021-104AM,2026-07-08T13:02:14.828352,15.11575525,.00023991,53.2150,25.7767,114.9060,245.2183,0,U,49443,999,25717,.91706606E-3,.15478E-3,0
STARLINK-3126,2021-104AN,2026-07-07T23:21:57.085632,15.08829907,.0001309,53.1617,28.9400,89.6541,270.4601,0,U,49444,999,25707,-.17421097E-4,-.565E-5,0
STARLINK-3122,2021-104AP,2026-07-08T14:00:03.000384,15.18408992,.0001679,53.1612,36.3769,127.8199,137.9266,0,U,49445,999,549,.25605754E-2,.53402E-3,0
STARLINK-3099,2021-104AQ,2026-07-08T13:33:44.458560,15.08830672,.00014489,53.1614,26.2703,90.6483,269.4675,0,U,49446,999,25716,.44869318E-4,.426E-5,0
STARLINK-3115,2021-104AR,2026-07-08T14:00:03.000384,15.23534527,.00011137,53.1611,35.7170,162.1498,125.4421,0,U,49447,999,555,.39292929E-2,.95996E-3,0
STARLINK-3137,2021-104AT,2026-07-08T10:54:30.356064,15.52814233,.00005345,53.2146,351.4389,282.2119,77.8832,0,U,49449,999,25765,.99728523E-3,.62882E-3,0
STARLINK-3127,2021-104AU,2026-07-08T07:36:46.547424,15.09257601,.00007543,53.1611,37.4179,96.2261,263.8816,0,U,49450,999,25724,.35506508E-2,.57336E-3,0
STARLINK-3125,2021-104AV,2026-07-08T14:00:03.000384,15.16536185,.00016829,53.1601,35.9860,88.2896,99.9000,0,U,49451,999,554,.24342669E-2,.48051E-3,0
STARLINK-3150,2021-104AW,2026-07-08T14:00:03.000384,15.25133372,.0000954,53.1606,35.6774,61.7238,0.8931,0,U,49452,999,554,.36649935E-2,.93873E-3,0
STARLINK-3129,2021-104AX,2026-07-07T21:03:59.358240,15.31701161,.00008953,53.1621,36.3363,91.5441,268.5663,0,U,49453,999,25696,.70345507E-4,.1819E-4,0
STARLINK-3160,2021-104AY,2026-07-08T14:00:03.000384,15.17055966,.0002516,53.1602,36.0513,96.8520,77.5573,0,U,49454,999,554,.23420955E-2,.46908E-3,0
STARLINK-3145,2021-104AZ,2026-07-08T14:00:03.000384,15.16373158,.00021235,53.1609,36.0637,137.5793,111.0310,0,U,49455,999,549,.25211419E-2,.49556E-3,0
STARLINK-3124,2021-104BA,2026-07-08T14:00:03.000384,15.16089664,.000236,53.1603,36.1082,90.2301,94.7966,0,U,49456,999,554,.22792743E-2,.44379E-3,0
STARLINK-3132,2021-104BB,2026-07-08T14:00:03.000384,15.23929173,.00015754,53.1603,35.7218,66.3959,18.7906,0,U,49457,999,549,.3762481E-2,.92955E-3,0
STARLINK-3156,2021-104BC,2026-07-08T14:00:03.000384,15.16103591,.00021941,53.1605,36.0702,110.6086,114.1087,0,U,49458,999,548,.23611721E-2,.46013E-3,0
STARLINK-3141,2021-104BD,2026-07-08T14:00:03.000384,15.13552833,.00007182,53.1610,36.0867,11.9686,264.4012,0,U,49459,999,554,.29274602E-2,.53189E-3,0
STARLINK-3140,2021-104BE,2026-07-08T14:00:03.000384,15.15371288,.0001412,53.1612,36.0673,180.0456,126.7029,0,U,49460,999,549,.26737958E-2,.51104E-3,0
GLOBAL-14,2021-106A,2026-07-08T09:34:40.255392,15.51581768,.00164739,42.0026,164.9224,177.8259,182.2659,0,U,49469,999,26142,.27991814E-3,.16839E-3,0
GAOFEN-11 03,2021-107A,2026-07-08T14:13:27.935616,15.23580659,.00060188,97.2073,232.9010,14.5341,345.6069,0,U,49492,999,25789,.14739298E-3,.3459E-4,0
GAOFEN-3 02,2021-109A,2026-07-08T13:20:42.555840,14.42219958,.00015039,98.4095,197.3492,305.5719,54.5330,0,U,49495,999,24339,.32594877E-4,.64E-6,0
COSMOS 2552,2021-113A,2026-07-07T20:58:46.070976,2.00621985,.64268259,62.8367,205.5378,272.4768,20.7610,0,U,49503,999,3381,0,-.63E-6,0
ZHONGXING-1D,2021-114A,2026-07-08T11:47:38.638752,1.00272006,.00003898,0.0560,238.8153,32.0867,322.6517,0,U,49505,999,1703,0,-.321E-5,0
STARLINK-3219,2021-115A,2026-07-07T09:28:23.693088,15.31711333,.00011732,53.1609,329.4355,66.5583,293.5542,0,U,49724,999,25363,.32923567E-3,.9869E-4,0
STARLINK-3218,2021-115B,2026-07-08T14:00:03.000384,15.13387027,.00021733,53.1585,326.2381,101.7895,35.1980,0,U,49725,999,549,.35371108E-3,.6089E-4,0
STARLINK-3242,2021-115D,2026-07-08T14:00:03.000384,15.24724917,.0000898,53.1582,335.4526,104.3936,269.4025,0,U,49727,999,569,.45823638E-3,.11168E-3,0
STARLINK-3240,2021-115E,2026-07-08T14:00:03.000384,15.32122117,.00006701,53.1609,334.8934,116.6027,164.9024,0,U,49728,999,574,.15690302E-2,.49295E-3,0
STARLINK-3251,2021-115F,2026-07-08T14:00:03.000384,15.22948417,.00019364,53.1605,335.6533,129.9222,101.0694,0,U,49729,999,575,.22810109E-2,.54314E-3,0
STARLINK-3249,2021-115G,2026-07-08T14:00:03.000384,15.27429875,.00004704,53.1591,335.3510,102.1365,241.1614,0,U,49730,999,559,.54671154E-3,.14554E-3,0
STARLINK-3246,2021-115J,2026-07-08T14:00:03.000384,15.26003626,.000157,53.1605,335.7061,68.4390,35.4827,0,U,49732,999,585,.18235461E-2,.47474E-3,0
STARLINK-3252,2021-115K,2026-07-08T14:00:03.000384,15.23309274,.00022721,53.1609,335.7350,77.3675,50.5235,0,U,49733,999,559,.2013944E-2,.48395E-3,0
