STARLINK-3136           
1 49443U 21104AM  26189.54322718  .00015478  00000+0  91707-3 0  9991
2 49443  53.2150  25.7767 0002399 114.9060 245.2183 15.11575525257174
STARLINK-3126           
1 49444U 21104AN  26188.97357738 -.00000565  00000+0 -17421-4 0  9993
2 49444  53.1617  28.9400 0001309  89.6541 270.4601 15.08829907257079
STARLINK-3122           
1 49445U 21104AP  26189.58336806  .00053402  00000+0  25606-2 0  9993
2 49445  53.1612  36.3769 0001679 127.8199 137.9266 15.18408992  5499
STARLINK-3099           
1 49446U 21104AQ  26189.56509790  .00000426  00000+0  44869-4 0  9998
2 49446  53.1614  26.2703 0001448  90.6483 269.4675 15.08830672257166
STARLINK-3115           
1 49447U 21104AR  26189.58336806  .00095996  00000+0  39293-2 0  9996
2 49447  53.1611  35.7170 0001113 162.1498 125.4421 15.23534527  5558
STARLINK-3137           
1 49449U 21104AT  26189.45451801  .00062882  00000+0  99729-3 0  9996
2 49449  53.2146 351.4389 0000534 282.2119  77.8832 15.52814233257657
STARLINK-3127           
1 49450U 21104AU  26189.31720541  .00057336  00000+0  35507-2 0  9994
2 49450  53.1611  37.4179 0000754  96.2261 263.8816 15.09257601257244
STARLINK-3125           
1 49451U 21104AV  26189.58336806  .00048051  00000+0  24343-2 0  9991
2 49451  53.1601  35.9860 0001682  88.2896  99.9000 15.16536185  5542
STARLINK-3150           
1 49452U 21104AW  26189.58336806  .00093873  00000+0  36650-2 0  9998
2 49452  53.1606  35.6774 0000954  61.7238   0.8931 15.25133372  5541
STARLINK-3129           
1 49453U 21104AX  26188.87777035  .00001819  00000+0  70346-4 0  9994
2 49453  53.1621  36.3363 0000895  91.5441 268.5663 15.31701161256965
STARLINK-3160           
1 49454U 21104AY  26189.58336806  .00046908  00000+0  23421-2 0  9999
2 49454  53.1602  36.0513 0002516  96.8520  77.5573 15.17055966  5540
STARLINK-3145           
1 49455U 21104AZ  26189.58336806  .00049556  00000+0  25211-2 0  9991
2 49455  53.1609  36.0637 0002123 137.5793 111.0310 15.16373158  5496
STARLINK-3124           
1 49456U 21104BA  26189.58336806  .00044379  00000+0  22793-2 0  9992
2 49456  53.1603  36.1082 0002360  90.2301  94.7966 15.16089664  5545
STARLINK-3132           
1 49457U 21104BB  26189.58336806  .00092955  00000+0  37625-2 0  9996
2 49457  53.1603  35.7218 0001575  66.3959  18.7906 15.23929173  5492
STARLINK-3156           
1 49458U 21104BC  26189.58336806  .00046013  00000+0  23612-2 0  9992
2 49458  53.1605  36.0702 0002194 110.6086 114.1087 15.16103591  5489
STARLINK-3141           
1 49459U 21104BD  26189.58336806  .00053189  00000+0  29275-2 0  9996
2 49459  53.1610  36.0867 0000718  11.9686 264.4012 15.13552833  5545
STARLINK-3140           
1 49460U 21104BE  26189.58336806  .00051104  00000+0  26738-2 0  9994
2 49460  53.1612  36.0673 0001412 180.0456 126.7029 15.15371288  5496
GLOBAL-14               
1 49469U 21106A   26189.39907703  .00016839  00000+0  27992-3 0  9994
2 49469  42.0026 164.9224 0016473 177.8259 182.2659 15.51581768261421
GAOFEN-11 03            
1 49492U 21107A   26189.59268444  .00003459  00000+0  14739-3 0  9994
2 49492  97.2073 232.9010 0006018  14.5341 345.6069 15.23580659257896
GAOFEN-3 02             
1 49495U 21109A   26189.55604810  .00000064  00000+0  32595-4 0  9996
2 49495  98.4095 197.3492 0001503 305.5719  54.5330 14.42219958243398
COSMOS 2552             
1 49503U 21113A   26188.87414434 -.00000063  00000+0  00000+0 0  9997
2 49503  62.8367 205.5378 6426825 272.4768  20.7610  2.00621985 33818
ZHONGXING-1D            
1 49505U 21114A   26189.49141943 -.00000321  00000+0  00000+0 0  9998
2 49505   0.0560 238.8153 0000389  32.0867 322.6517  1.00272006 17037
STARLINK-3219           
1 49724U 21115A   26188.39471867  .00009869  00000+0  32924-3 0  9990
2 49724  53.1609 329.4355 0001173  66.5583 293.5542 15.31711333253635
STARLINK-3218           
1 49725U 21115B   26189.58336806  .00006089  00000+0  35371-3 0  9996
2 49725  53.1585 326.2381 0002173 101.7895  35.1980 15.13387027  5496
STARLINK-3242           
1 49727U 21115D   26189.58336806  .00011168  00000+0  45824-3 0  9996
2 49727  53.1582 335.4526 0000898 104.3936 269.4025 15.24724917  5694
STARLINK-3240           
1 49728U 21115E   26189.58336806  .00049295  00000+0  15690-2 0  9996
2 49728  53.1609 334.8934 0000670 116.6027 164.9024 15.32122117  5743
STARLINK-3251           
1 49729U 21115F   26189.58336806  .00054314  00000+0  22810-2 0  9997
2 49729  53.1605 335.6533 0001936 129.9222 101.0694 15.22948417  5758
STARLINK-3249           
1 49730U 21115G   26189.58336806  .00014554  00000+0  54671-3 0  9992
2 49730  53.1591 335.3510 0000470 102.1365 241.1614 15.27429875  5596
STARLINK-3246           
1 49732U 21115J   26189.58336806  .00047474  00000+0  18235-2 0  9996
2 49732  53.1605 335.7061 0001570  68.4390  35.4827 15.26003626  5853
STARLINK-3252           
1 49733U 21115K   26189.58336806  .00048395  00000+0  20139-2 0  9996
2 49733  53.1609 335.7350 0002272  77.3675  50.5235 15.23309274  5591
